NORAD_CAT_ID,OBJECT_NAME,OBJECT_TYPE,EPOCH,MEAN_MOTION,ECCENTRICITY,INCLINATION,RA_OF_ASC_NODE,ARG_OF_PERICENTER,MEAN_ANOMALY,BSTAR,MEAN_MOTION_DOT,MEAN_MOTION_DDOT,TLE_LINE0,TLE_LINE1,TLE_LINE2,SEMIMAJOR_AXIS,PERIOD,APOGEE,PERIGEE,DECAYED
51139.0,STARLINK-3172,PAYLOAD,2024-04-24 10:48:16,15.08849706,0.0001985,53.2164,130.8003,82.2853,277.8364,0.00024776,3.658e-05,0.0,0 STARLINK-3172,1 51139U 22005AM  24115.45019068  .00003658  00000-0  24776-3 0  9995,2 51139  53.2164 130.8003 0001985  82.2853 277.8364 15.08849706126552,6917.851,95.437,541.089,538.343,0.0
51139.0,STARLINK-3172,PAYLOAD,2024-04-25 04:17:30,15.08843291,0.0002007,53.2174,127.5279,108.5166,251.6044,4.9026e-05,4.92e-06,0.0,0 STARLINK-3172,1 51139U 22005AM  24116.17883085  .00000492  00000-0  49026-4 0  9992,2 51139  53.2174 127.5279 0002007 108.5166 251.6044 15.08843291126666,6917.87,95.437,541.124,538.347,0.0
51139.0,STARLINK-3172,PAYLOAD,2024-04-25 05:52:54,15.08846821,0.0001911,53.2175,127.2298,104.5849,255.5355,-1.5394e-05,-5.33e-06,0.0,0 STARLINK-3172,1 51139U 22005AM  24116.24507026 -.00000533  00000-0 -15394-4 0  9997,2 51139  53.2175 127.2298 0001911 104.5849 255.5355 15.08846821125560,6917.86,95.437,541.047,538.403,0.0
51139.0,STARLINK-3172,PAYLOAD,2024-04-26 07:19:04,15.08845507,0.000173,53.2174,122.4774,101.4516,258.667,2.1802e-05,5.9e-07,0.0,0 STARLINK-3172,1 51139U 22005AM  24117.30490775  .00000059  00000-0  21802-4 0  9999,2 51139  53.2174 122.4774 0001730 101.4516 258.6670 15.08845507126836,6917.864,95.437,540.925,538.532,0.0
51139.0,STARLINK-3172,PAYLOAD,2024-04-26 16:51:22,15.08844616,0.0001692,53.217,120.6925,102.9909,257.1272,-1.5228e-05,-5.3e-06,0.0,0 STARLINK-3172,1 51139U 22005AM  24117.70234765 -.00000530  00000-0 -15228-4 0  9999,2 51139  53.2170 120.6925 0001692 102.9909 257.1272 15.08844616125784,6917.866,95.437,540.902,538.561,0.0
51139.0,STARLINK-3172,PAYLOAD,2024-04-27 03:59:05,15.08838458,0.0001703,53.2171,118.6114,99.8541,260.2644,6.7572e-05,7.87e-06,0.0,0 STARLINK-3172,1 51139U 22005AM  24118.16603099  .00000787  00000-0  67572-4 0  9991,2 51139  53.2171 118.6114 0001703  99.8541 260.2644 15.08838458126967,6917.885,95.438,540.928,538.572,0.0
51139.0,STARLINK-3172,PAYLOAD,2024-04-27 07:09:51,15.08841832,0.0001748,53.2174,118.0172,100.547,259.5719,9.0578e-05,1.154e-05,0.0,0 STARLINK-3172,1 51139U 22005AM  24118.29850822  .00001154  00000-0  90578-4 0  9994,2 51139  53.2174 118.0172 0001748 100.5470 259.5719 15.08841832125871,6917.875,95.437,540.949,538.531,0.0
51139.0,STARLINK-3172,PAYLOAD,2024-04-27 16:42:10,15.08830429,0.0001737,53.2177,116.2325,94.7042,265.4148,0.00018095,2.592e-05,0.0,0 STARLINK-3172,1 51139U 22005AM  24118.69595353  .00002592  00000-0  18095-3 0  9993,2 51139  53.2177 116.2325 0001737  94.7042 265.4148 15.08830429125930,6917.91,95.438,540.976,538.573,0.0
51139.0,STARLINK-3172,PAYLOAD,2024-04-28 03:49:52,15.08832202,0.0001804,53.2181,114.1522,100.4754,259.6442,-2.3906e-05,-6.68e-06,0.0,0 STARLINK-3172,1 51139U 22005AM  24119.15963819 -.00000668  00000-0 -23906-4 0  9993,2 51139  53.2181 114.1522 0001804 100.4754 259.6442 15.08832202127116,6917.904,95.438,541.017,538.521,0.0
51139.0,STARLINK-3172,PAYLOAD,2024-04-28 10:11:25,15.08835213,0.0001757,53.2179,112.9611,92.7974,267.3219,-1.3314e-05,-5e-06,0.0,0 STARLINK-3172,1 51139U 22005AM  24119.42459676 -.00000500  00000-0 -13314-4 0  9991,2 51139  53.2179 112.9611 0001757  92.7974 267.3219 15.08835213126046,6917.895,95.438,540.975,538.545,0.0
51139.0,STARLINK-3172,PAYLOAD,2024-04-28 16:32:57,15.08839037,0.000177,53.2183,111.772,91.9827,268.1368,-8.769e-06,-4.28e-06,0.0,0 STARLINK-3172,1 51139U 22005AM  24119.68955413 -.00000428  00000-0 -87690-5 0  9997,2 51139  53.2183 111.7720 0001770  91.9827 268.1368 15.08839037127191,6917.883,95.438,540.973,538.524,0.0
51139.0,STARLINK-3172,PAYLOAD,2024-04-29 08:26:48,15.088429,0.0001697,53.2179,108.7973,87.322,272.7967,4.9046e-05,4.93e-06,0.0,0 STARLINK-3172,1 51139U 22005AM  24120.35194999  .00000493  00000-0  49046-4 0  9999,2 51139  53.2179 108.7973 0001697  87.3220 272.7967 15.08842900126183,6917.872,95.437,540.91,538.563,0.0
51139.0,STARLINK-3172,PAYLOAD,2024-04-29 16:23:44,15.0884067,0.0001708,53.2181,107.3107,87.4991,272.6197,3.0194e-05,1.93e-06,0.0,0 STARLINK-3172,1 51139U 22005AM  24120.68315177  .00000193  00000-0  30194-4 0  9999,2 51139  53.2181 107.3107 0001708  87.4991 272.6197 15.08840670126231,6917.878,95.438,540.925,538.562,0.0
51139.0,STARLINK-3172,PAYLOAD,2024-04-30 05:06:49,15.08834722,0.000154,53.2167,104.9317,90.3973,269.7195,9.7125e-05,1.258e-05,0.0,0 STARLINK-3172,1 51139U 22005AM  24121.21307381  .00001258  00000-0  97125-4 0  9997,2 51139  53.2167 104.9317 0001540  90.3973 269.7195 15.08834722127426,6917.897,95.438,540.827,538.696,0.0
51139.0,STARLINK-3172,PAYLOAD,2024-04-30 22:36:04,15.08838735,0.0001466,53.2165,101.6601,91.2523,268.8637,2.4477e-05,1.02e-06,0.0,0 STARLINK-3172,1 51139U 22005AM  24121.94171429  .00000102  00000-0  24477-4 0  9996,2 51139  53.2165 101.6601 0001466  91.2523 268.8637 15.08838735126420,6917.884,95.438,540.763,538.735,0.0
51139.0,STARLINK-3172,PAYLOAD,2024-05-01 04:57:36,15.08842331,0.000147,53.2168,100.4702,92.4322,267.6838,1.4111e-05,-6.3e-07,0.0,0 STARLINK-3172,1 51139U 22005AM  24122.20667231 -.00000063  00000-0  14111-4 0  9998,2 51139  53.2168 100.4702 0001470  92.4322 267.6838 15.08842331126468,6917.873,95.437,540.755,538.721,0.0
51139.0,STARLINK-3172,PAYLOAD,2024-05-01 16:05:18,15.08842335,0.0001461,53.2173,98.3887,92.4914,267.6245,3.2851e-05,2.35e-06,0.0,0 STARLINK-3172,1 51139U 22005AM  24122.67035053  .00000235  00000-0  32851-4 0  9991,2 51139  53.2173  98.3887 0001461  92.4914 267.6245 15.08842335127647,6917.873,95.437,540.749,538.728,0.0
51139.0,STARLINK-3172,PAYLOAD,2024-05-02 07:59:09,15.08841203,0.0001519,53.2177,95.4146,96.3385,263.7781,5.6032e-05,6.04e-06,0.0,0 STARLINK-3172,1 51139U 22005AM  24123.33275018  .00000604  00000-0  56032-4 0  9999,2 51139  53.2177  95.4146 0001519  96.3385 263.7781 15.08841203126639,6917.877,95.437,540.793,538.691,0.0
51139.0,STARLINK-3172,PAYLOAD,2024-05-03 04:39:09,15.08848141,0.0001446,53.2182,91.5493,95.7798,264.3359,8.2793e-05,1.03e-05,0.0,0 STARLINK-3172,1 51139U 22005AM  24124.19386425  .00001030  00000-0  82793-4 0  9996,2 51139  53.2182  91.5493 0001446  95.7798 264.3359 15.08848141127870,6917.856,95.437,540.721,538.72,0.0
51139.0,STARLINK-3172,PAYLOAD,2024-05-03 14:11:29,15.08836586,0.000157,53.2181,89.7651,87.0584,273.0588,-1.7704e-05,-5.7e-06,0.0,0 STARLINK-3172,1 51139U 22005AM  24124.59131418 -.00000570  00000-0 -17704-4 0  9990,2 51139  53.2181  89.7651 0001570  87.0584 273.0588 15.08836586126824,6917.891,95.438,540.842,538.67,0.0
51139.0,STARLINK-3172,PAYLOAD,2024-05-03 22:08:25,15.08831263,0.0001835,53.2177,88.2793,99.1215,260.9985,-4.7383e-05,-1.042e-05,0.0,0 STARLINK-3172,1 51139U 22005AM  24124.92252010 -.00001042  00000-0 -47383-4 0  9990,2 51139  53.2177  88.2793 0001835  99.1215 260.9985 15.08831263126877,6917.907,95.438,541.042,538.503,0.0
51139.0,STARLINK-3172,PAYLOAD,2024-05-04 04:29:58,15.08827103,0.0001437,53.2184,87.0928,92.8204,267.2953,-0.00013105,-2.372e-05,0.0,0 STARLINK-3172,1 51139U 22005AM  24125.18748759 -.00002372  00000-0 -13105-3 0  9990,2 51139  53.2184  87.0928 0001437  92.8204 267.2953 15.08827103128020,6917.92,95.438,540.779,538.791,0.0
51139.0,STARLINK-3172,PAYLOAD,2024-05-04 14:02:17,15.08833804,0.0001441,53.2189,85.308,93.3188,266.7969,-7.7051e-05,-1.514e-05,0.0,0 STARLINK-3172,1 51139U 22005AM  24125.58492395 -.00001514  00000-0 -77051-4 0  9994,2 51139  53.2189  85.3080 0001441  93.3188 266.7969 15.08833804128089,6917.899,95.438,540.761,538.767,0.0
51139.0,STARLINK-3172,PAYLOAD,2024-05-05 04:20:44,15.08843539,0.0001208,53.218,82.6303,87.0892,273.0239,4.6568e-05,4.53e-06,0.0,0 STARLINK-3172,1 51139U 22005AM  24126.18107559  .00000453  00000-0  46568-4 0  9994,2 51139  53.2180  82.6303 0001208  87.0892 273.0239 15.08843539128178,6917.87,95.437,540.57,538.899,0.0
51139.0,STARLINK-3172,PAYLOAD,2024-05-05 05:56:07,15.0884659,0.0001298,53.2183,82.3324,88.4912,271.6229,3.8065e-05,3.18e-06,0.0,0 STARLINK-3172,1 51139U 22005AM  24126.24731420  .00000318  00000-0  38065-4 0  9994,2 51139  53.2183  82.3324 0001298  88.4912 271.6229 15.08846590127079,6917.86,95.437,540.623,538.827,0.0
51139.0,STARLINK-3172,PAYLOAD,2024-05-06 04:11:32,15.08837145,0.0001379,53.2191,78.1712,85.8258,274.2891,0.0001769,2.528e-05,0.0,0 STARLINK-3172,1 51139U 22005AM  24127.17467949  .00002528  00000-0  17690-3 0  9994,2 51139  53.2191  78.1712 0001379  85.8258 274.2891 15.08837145128325,6917.889,95.438,540.708,538.8,0.0
51139.0,STARLINK-3172,PAYLOAD,2024-05-06 13:43:50,15.08844658,0.0001329,53.218,76.3854,83.8642,276.2501,0.0001731,2.468e-05,0.0,0 STARLINK-3172,1 51139U 22005AM  24127.57211505  .00002468  00000-0  17310-3 0  9995,2 51139  53.2180  76.3854 0001329  83.8642 276.2501 15.08844658127270,6917.866,95.437,540.651,538.812,0.0
51139.0,STARLINK-3172,PAYLOAD,2024-05-07 04:02:18,15.08850995,0.0001527,53.2193,73.7089,82.9021,277.2145,7.6068e-05,9.23e-06,0.0,0 STARLINK-3172,1 51139U 22005AM  24128.16827316  .00000923  00000-0  76068-4 0  9994,2 51139  53.2193  73.7089 0001527  82.9021 277.2145 15.08850995128475,6917.847,95.437,540.768,538.655,0.0
51139.0,STARLINK-3172,PAYLOAD,2024-05-07 13:34:38,15.08841248,0.0001413,53.2183,71.9239,90.5712,269.5442,-2.6111e-05,-7.03e-06,0.0,0 STARLINK-3172,1 51139U 22005AM  24128.56571930 -.00000703  00000-0 -26111-4 0  9998,2 51139  53.2183  71.9239 0001413  90.5712 269.5442 15.08841248127426,6917.877,95.437,540.719,538.764,0.0
51139.0,STARLINK-3172,PAYLOAD,2024-05-07 21:31:34,15.08835293,0.000154,53.2195,70.4362,96.3367,263.78,-8.8321e-05,-1.693e-05,0.0,0 STARLINK-3172,1 51139U 22005AM  24128.89692667 -.00001693  00000-0 -88321-4 0  9995,2 51139  53.2195  70.4362 0001540  96.3367 263.7800 15.08835293127473,6917.895,95.438,540.825,538.694,0.0
